ONEWEB-0403             
1 50483U 21132Q   25061.54439249  .00000088  00000+0  19130-3 0  9995
2 50483  87.9043  69.2374 0001753  88.8269 271.3064 13.18685161159436
ONEWEB-0404             
1 50484U 21132R   25061.51226855  .00000457  00000+0  12547-2 0  9994
2 50484  87.8850 115.1021 0001582 106.6084 253.5218 13.11420061153870
ONEWEB-0405             
1 50485U 21132S   25061.56020045  .00000041  00000+0  71396-4 0  9991
2 50485  87.9045  69.2242 0001965 100.2171 259.9183 13.18685282159832
ONEWEB-0406             
1 50486U 21132T   25061.47325705  .00000001  00000+0 -29044-4 0  9993
2 50486  87.9050  69.2590 0001414  76.1038 284.0251 13.18684686159457
ONEWEB-0407             
1 50487U 21132U   25061.54281013 -.00000004  00000+0 -42474-4 0  9991
2 50487  87.9042  69.2351 0001907  95.7469 264.3881 13.18684551160695
ONEWEB-0409             
1 50488U 21132V   25061.58688595  .00000480  00000+0  13177-2 0  9994
2 50488  87.8840 115.0612 0001586  95.4038 264.7271 13.11417330153773
ONEWEB-0412             
1 50489U 21132W   25061.53174689  .00000044  00000+0  78365-4 0  9992
2 50489  87.9048  69.2492 0002092 101.1834 258.9534 13.18684952159498
ONEWEB-0413             
1 50490U 21132X   25061.53648917  .00000021  00000+0  20699-4 0  9996
2 50490  87.9047  69.2602 0002181  97.3765 262.7615 13.18684697160727
